{
    "links": {
        "self": "http://www.neowsapp.com/rest/v1/neo/3716458?api_key=iIulBulltgU6a56xZRHN4H3l9WmuAYTsLGpBGhQ2"
    },
    "id": "3716458",
    "neo_reference_id": "3716458",
    "name": "(2015 HS1)",
    "designation": "2015 HS1",
    "nasa_jpl_url": "http://ssd.jpl.nasa.gov/sbdb.cgi?sstr=3716458",
    "absolute_magnitude_h": 24.7,
    "estimated_diameter": {
        "kilometers": {
            "estimated_diameter_min": 0.0305179233,
            "estimated_diameter_max": 0.0682401509
        },
        "meters": {
            "estimated_diameter_min": 30.5179232594,
            "estimated_diameter_max": 68.2401509401
        },
        "miles": {
            "estimated_diameter_min": 0.0189629525,
            "estimated_diameter_max": 0.0424024508
        },
        "feet": {
            "estimated_diameter_min": 100.1244233463,
            "estimated_diameter_max": 223.8850168104
        }
    },
    "is_potentially_hazardous_asteroid": false,
    "close_approach_data": [
        {
            "close_approach_date": "2015-05-13",
            "close_approach_date_full": "2015-May-13 17:43",
            "epoch_date_close_approach": 1431538980000,
            "relative_velocity": {
                "kilometers_per_second": "7.4430411999",
                "kilometers_per_hour": "26794.9483195971",
                "miles_per_hour": "16649.3388600296"
            },
            "miss_distance": {
                "astronomical": "0.0696253326",
                "lunar": "27.0842543814",
                "kilometers": "10415801.455001562",
                "miles": "6472078.9098510756"
            },
            "orbiting_body": "Earth"
        }
    ],
    "orbital_data": {
        "orbit_id": "9",
        "orbit_determination_date": "2017-04-06 08:34:17",
        "first_observation_date": "2015-04-18",
        "last_observation_date": "2015-05-18",
        "data_arc_in_days": 30,
        "observations_used": 55,
        "orbit_uncertainty": "8",
        "minimum_orbit_intersection": ".0610229",
        "jupiter_tisserand_invariant": "3.606",
        "epoch_osculation": "2457136.5",
        "eccentricity": ".4890817211529407",
        "semi_major_axis": "2.073044046165733",
        "inclination": "5.578542603750634",
        "ascending_node_longitude": "39.85899292639179",
        "orbital_period": "1090.212661191243",
        "perihelion_distance": "1.05915609604114",
        "perihelion_argument": "207.6952730529408",
        "aphelion_distance": "3.086931996290326",
        "perihelion_time": "2457168.516251133384",
        "mean_anomaly": "349.4278879540582",
        "mean_motion": ".3302108045659997",
        "equinox": "J2000",
        "orbit_class": {
            "orbit_class_type": "AMO",
            "orbit_class_description": "Near-Earth asteroid orbits similar to that of 1221 Amor",
            "orbit_class_range": "1.017 AU < q (perihelion) < 1.3 AU"
        }
    },
    "is_sentry_object": false
}